FLOCK 2P-1              
1 41617U 16040U   18002.86376328  .00002851  00000-0  12142-3 0  9993
2 41617  97.4399  69.2882 0012084 102.4683 257.7906 15.23735628 85063
FLOCK 2P-3              
1 41618U 16040V   18002.89437906  .00001164  00000-0  51352-4 0  9990
2 41618  97.4396  69.2359 0011974 102.5111 257.7466 15.23739525 85065
BEESAT-4                
1 41619U 16040W   18003.16632001  .00001539  00000-0  71113-4 0  9998
2 41619  97.4382  68.4461 0013417  89.5036 270.7738 15.21630357 72996
3CAT-2                  
1 41732U 16051B   18003.09144734  .00001295  00000-0  53716-4 0  9997
2 41732  97.3769 282.1659 0012240 293.5314 181.5371 15.25628750 77000
FLOCK 2E'-13            
1 41761U 98067KH  18002.85484509  .00041610  00000-0  33983-3 0  9994
2 41761  51.6349 100.7971 0006546 304.1503  55.8873 15.70125356 74159
FLOCK 2E'-14            
1 41762U 98067KJ  18002.74356803  .00014174  00000-0  13668-3 0  9991
2 41762  51.6373 101.6095 0005253 286.9266  73.1154 15.66783944 74132
FLOCK 2E'-16            
1 41763U 98067KK  18002.70353243  .00043134  00000-0  33813-3 0  9995
2 41763  51.6366  99.8306 0005978 317.0081  43.0449 15.71097073 74111
FLOCK 2E'-15            
1 41764U 98067KL  18002.64120844  .00012231  00000-0  12270-3 0  9996
2 41764  51.6377 103.1739 0004895 295.4657  64.5832 15.65950348 74062
FLOCK 2E'-18            
1 41769U 98067KM  18002.74677521  .00011728  00000-0  11758-3 0  9991
2 41769  51.6376 102.3718 0003847 316.6709  43.3984 15.66018016 74087
FLOCK 2E'-17            
1 41776U 98067KN  18002.87264298  .00045774  00000-0  39061-3 0  9991
2 41776  51.6371 100.9921 0005479 331.0265  29.0427 15.69026241 74109
FLOCK 2E'-19            
1 41777U 98067KP  18002.87886328  .00019937  00000-0  15438-3 0  9990
2 41777  51.6356  93.4181 0003395 320.3896  39.6854 15.71855276 74161
FLOCK 2E'-20            
1 41782U 98067KQ  18002.62935736  .00020550  00000-0  16966-3 0  9997
2 41782  51.6365  97.0624 0003374 312.9525  47.1189 15.70291321 73968
CANX-7                  
1 41788U 16059F   18003.14306218  .00005294  00000-0  93784-3 0  9990
2 41788  98.1942  69.2025 0031854 250.0802 109.7000 14.67400309 67885
ALSAT 1N                
1 41789U 16059G   18003.12096325  .00000080  00000-0  24425-4 0  9999
2 41789  98.1428  68.0416 0026940 246.1571 113.6816 14.64116013 67865
RAVAN                   
1 41849U 16067B   18002.91797595  .00001510  00000-0  13476-3 0  9990
2 41849  97.9363  89.2034 0008172   6.6749 353.4579 14.97492271 62393
CELTEE 1                
1 41850U 16067C   18002.70049810  .00000411  00000-0  41324-4 0  9992
2 41850  97.9344  88.6915 0008577   3.9824 356.1464 14.96718062 62344
OPTICUBE 04             
1 41851U 16067D   18002.78499604  .00000635  00000-0  61090-4 0  9991
2 41851  97.9350  88.7323 0008874   6.8991 353.2350 14.96605754 62359
AEROCUBE 8D             
1 41852U 16067E   18003.20125204 -.00000047  00000-0  12590-5 0  9992
2 41852  97.9363  89.0214 0009729   2.9119 357.2157 14.96389359 62401
AEROCUBE 8C             
1 41853U 16067F   18002.87709803 -.00000229  00000-0 -14813-4 0  9990
2 41853  97.9360  88.6665 0010105   3.8231 356.3065 14.96350540 62351
PROMETHEUS 2-1          
1 41854U 16067G   18002.82506545  .00000381  00000-0  38984-4 0  9996
2 41854  97.9360  88.5911 0010190   3.0695 357.0586 14.96396006 62347
PROMETHEUS 2-3          
1 41855U 16067H   18003.22858917  .00000491  00000-0  48658-4 0  9996
2 41855  97.9360  89.0012 0010298   2.2367 357.8898 14.96391726 62407
LEMUR-2-XIAOQING        
1 41871U 16062C   18002.80322867  .00002271  00000-0  10739-3 0  9998
2 41871  51.6380 217.8912 0002780 196.0839 164.0053 15.23597344 61367
LEMUR-2-SOKOLSKY        
1 41872U 16062D   18002.97838982  .00001020  00000-0  55812-4 0  9990
2 41872  51.7014 217.2400 0004309 200.2249 159.8549 15.23657541 61381
LEMUR-2-ANUBHAVTHAKUR   
1 41873U 16062E   18002.99375886  .00001186  00000-0  65475-4 0  9991
2 41873  51.6358 219.0355 0004602 203.1547 156.9225 15.22044896 61347
LEMUR-2-WINGO           
1 41874U 16062F   18002.92260985  .00002049  00000-0  99273-4 0  9990
2 41874  51.6668 217.9216 0006330 187.8980 172.1904 15.23250891 61365
STARS-C                 
1 41895U 98067KR  18002.62218282  .00102042  00000-0  41791-3 0  9993
2 41895  51.6339  95.3913 0005203 336.7765  23.3003 15.85237326 59325
ITF-2                   
1 41932U 98067KU  18002.71529073  .00021398  00000-0  19762-3 0  9995
2 41932  51.6390 107.4543 0004391 295.1899  64.8642 15.67511712 54745
WASEDA-SAT3             
1 41933U 98067KV  18002.79133291  .00026609  00000-0  22235-3 0  9996
2 41933  51.6363 104.8985 0004412 298.6134  61.4419 15.69820873 54783
AOBA-VELOX 3            
1 41935U 98067KX  18002.86284256  .00025361  00000-0  21961-3 0  9993
2 41935  51.6380 105.4200 0004011 298.6824  61.3769 15.68984549 54880
OSNSAT                  
1 41939U 98067KZ  18002.62992372  .00626017  20806-3  75598-3 0  9995
2 41939  51.6257  86.2733 0008891 357.4781   2.6186 16.07529452 54366
FLOCK 3P-8              
1 41951U 17008D   18002.89690809  .00002124  00000-0  91328-4 0  9992
2 41951  97.4720  68.5610 0007780 202.1240 157.9662 15.23736524 48938
FLOCK 3P-51             
1 41952U 17008E   18002.73193174  .00001130  00000-0  49901-4 0  9995
2 41952  97.4727  68.5002 0007229 222.7050 137.3626 15.23794962 48905
FLOCK 3P-37             
1 41953U 17008F   18002.91359568  .00002924  00000-0  12240-3 0  9994
2 41953  97.4725  68.8605 0006443 226.3538 133.7166 15.24351119 48952
INS-1B                  
1 41954U 17008G   18002.92371422  .00001456  00000-0  65803-4 0  9992
2 41954  97.4693  68.1241 0008877 204.2501 155.8319 15.22540659 48855
FLOCK 3P-19             
1 41955U 17008H   18002.71360519  .00003132  00000-0  13323-3 0  9997
2 41955  97.4716  68.3288 0008531 203.5401 156.5447 15.23735024 48823
FLOCK 3P-24             
1 41956U 17008J   18003.15983873  .00003537  00000-0  14864-3 0  9991
2 41956  97.4710  68.8002 0008481 198.3593 161.7340 15.24058591 48978
FLOCK 3P-18             
1 41957U 17008K   18002.90134219  .00002822  00000-0  11965-3 0  9991
2 41957  97.4713  68.5377 0008473 201.4122 158.6761 15.23934701 48774
FLOCK 3P-22             
1 41958U 17008L   18002.91591813  .00000813  00000-0  36907-4 0  9992
2 41958  97.4717  68.5235 0008382 201.6194 158.4690 15.23631467 48763
FLOCK 3P-21             
1 41959U 17008M   18002.90612500  .00000876  00000-0  39552-4 0  9997
2 41959  97.4725  68.5578 0008205 203.3024 156.7842 15.23625186 48770
FLOCK 3P-28             
1 41960U 17008N   18002.90362413  .00002390  00000-0  10242-3 0  9991
2 41960  97.4721  68.5531 0008080 201.2731 158.8171 15.23733298 48851
FLOCK 3P-26             
1 41961U 17008P   18002.90959324  .00003261  00000-0  13853-3 0  9994
2 41961  97.4719  68.5412 0008287 200.7622 159.3280 15.23755092 48773
FLOCK 3P-17             
1 41962U 17008Q   18003.15538010  .00005351  00000-0  22525-3 0  9996
2 41962  97.4718  68.8272 0008011 203.3041 156.7834 15.23772906 48767
FLOCK 3P-27             
1 41963U 17008R   18002.91886429  .00002143  00000-0  92014-4 0  9997
2 41963  97.4718  68.5311 0008389 201.3353 158.7535 15.23775370 48770
FLOCK 3P-25             
1 41964U 17008S   18003.16974522  .00002203  00000-0  94612-4 0  9991
2 41964  97.4717  68.8015 0008100 200.5496 159.5417 15.23738032 48798
FLOCK 3P-4              
1 41965U 17008T   18002.83442748  .00001838  00000-0  79426-4 0  9994
2 41965  97.4721  68.4941 0007883 203.3134 156.7746 15.23737045 48848
FLOCK 3P-2              
1 41966U 17008U   18002.90120321  .00002429  00000-0  10404-3 0  9990
2 41966  97.4724  68.5660 0007872 200.8359 159.2558 15.23735683 48777
FLOCK 3P-1              
1 41967U 17008V   18002.86241918  .00002491  00000-0  10710-3 0  9991
2 41967  97.4725  68.4710 0007931 203.3824 156.7053 15.23576271 48762
FLOCK 3P-3              
1 41968U 17063B   18002.83906302  .00003193  00000-0  13591-3 0  9995
2 41968  97.4720  68.4856 0007918 201.7644 158.3257 15.23710938 48759
FLOCK 3P-6              
1 41969U 17008X   18002.89866985  .00004015  00000-0  16993-3 0  9996
2 41969  97.4723  68.5701 0007778 200.7350 159.3572 15.23740704 48766
FLOCK 3P-7              
1 41970U 17008Y   18002.94392552  .00001260  00000-0  55327-4 0  9992
2 41970  97.4723  68.6644 0007774 204.0452 156.0423 15.23775052 48786
FLOCK 3P-5              
1 41971U 17008Z   18003.15888814  .00002224  00000-0  95478-4 0  9990
2 41971  97.4725  68.8436 0007755 203.0250 157.0641 15.23742756 48748
FLOCK 3P-12             
1 41972U 17008AA  18003.15737105  .00003828  00000-0  16212-3 0  9996
2 41972  97.4723  68.8425 0007609 203.3090 156.7803 15.23751128 48893
FLOCK 3P-9              
1 41973U 17008AB  18003.16073576  .00002304  00000-0  98781-4 0  9993
2 41973  97.4724  68.8437 0007812 200.9332 159.1586 15.23747491 48899
FLOCK 3P-10             
1 41974U 17008AC  18002.81939652  .00001989  00000-0  85681-4 0  9994
2 41974  97.4727  68.5383 0007571 203.7282 156.3607 15.23755025 48735
FLOCK 3P-11             
1 41975U 17008AD  18003.16209630  .00002933  00000-0  12499-3 0  9996
2 41975  97.4725  68.8417 0007880 201.6274 158.4631 15.23733303 48663
FLOCK 3P-60             
1 41976U 17008AE  18002.87234142  .00002522  00000-0  10769-3 0  9992
2 41976  97.4730  68.6241 0007463 204.3939 155.6945 15.23797643 48101
FLOCK 3P-58             
1 41977U 17008AF  18003.15797709  .00001899  00000-0  81984-4 0  9992
2 41977  97.4724  68.8444 0007528 202.7297 157.3608 15.23739509 48970
FLOCK 3P-57             
1 41978U 17008AG  18002.82115599  .00001715  00000-0  74354-4 0  9997
2 41978  97.4726  68.5294 0007607 202.6520 157.4383 15.23729494 48769
FLOCK 3P-75             
1 41979U 17008AH  18002.82008274  .00001818  00000-0  78614-4 0  9996
2 41979  97.4748  68.6282 0007710 206.2657 153.8190 15.23747159 48919
